QIANFAN-65              
1 62795U 25016L   25310.88338993  .00000041  00000+0  44767-4 0  9991
2 62795  88.9733 106.7663 0015600  87.9904 272.3033 13.50974597 42407
QIANFAN-66              
1 62796U 25016M   25310.91222610  .00000040  00000+0  42387-4 0  9999
2 62796  88.9753 106.7264 0016690  83.8802 276.4250 13.50978581 42457
QIANFAN-67              
1 62797U 25016N   25310.91634420  .00000054  00000+0  65451-4 0  9998
2 62797  88.9743 106.7550 0016692  90.0677 270.2387 13.50971453 42428
QIANFAN-68              
1 62798U 25016P   25310.75997248  .00000051  00000+0  59593-4 0  9998
2 62798  88.9747 106.8150 0016736  88.8827 271.4242 13.50973743 42383
QIANFAN-69              
1 62799U 25016Q   25310.85057466  .00000043  00000+0  47972-4 0  9998
2 62799  88.9725 106.6828 0017498  89.5664 270.7492 13.50971077 42436
QIANFAN-70              
1 62800U 25016R   25310.86684576  .00000059  00000+0  72008-4 0  9995
2 62800  88.9746 106.8120 0017043  80.8324 279.4755 13.50974101 42396
QIANFAN-71              
1 62801U 25016S   25310.86281789  .00000038  00000+0  39174-4 0  9999
2 62801  88.9740 106.7942 0017428  92.7121 267.6026 13.50974790 42390
QIANFAN-72              
1 62802U 25016T   25310.87929146  .00000041  00000+0  45088-4 0  9992
2 62802  88.9730 106.8093 0020690  99.2399 261.1093 13.50974605 42389
